[{"OBJECT_NAME":"COSMOS 2523","OBJECT_ID":"2017-037E","EPOCH":"2026-03-09T23:01:03.762912","MEAN_MOTION":14.95066265,"ECCENTRICITY":0.0066686,"INCLINATION":97.5062,"RA_OF_ASC_NODE":86.2978,"ARG_OF_PERICENTER":201.8356,"MEAN_ANOMALY":158.0021,"EPHEMERIS_TYPE":0,"CLASSIFICATION_TYPE":"U","NORAD_CAT_ID":42986,"ELEMENT_SET_NO":999,"REV_AT_EPOCH":45413,"BSTAR":0.00015362789,"MEAN_MOTION_DOT":1.699e-5,"MEAN_MOTION_DDOT":0},{"OBJECT_NAME":"STARLINK-4764","OBJECT_ID":"2022-114K","EPOCH":"2026-03-09T21:49:20.035488","MEAN_MOTION":15.08862308,"ECCENTRICITY":0.00014152,"INCLINATION":53.2176,"RA_OF_ASC_NODE":303.2006,"ARG_OF_PERICENTER":69.746,"MEAN_ANOMALY":290.3684,"EPHEMERIS_TYPE":0,"CLASSIFICATION_TYPE":"U","NORAD_CAT_ID":53827,"ELEMENT_SET_NO":999,"REV_AT_EPOCH":19286,"BSTAR":0.00032708649,"MEAN_MOTION_DOT":4.925e-5,"MEAN_MOTION_DDOT":0}]
